{
  "type": "FeatureCollection",
  "name": "gwangju_simplified_admin",
  "metadata": {
    "source": "국토지리정보원, 행정안전부 행정구역 경계 자료 기반 단순화 샘플",
    "note": "운영 배포 시 scripts/download-geojson.ts로 공식 경계 파일을 내려받아 교체하세요."
  },
  "features": [
    {
      "type": "Feature",
      "properties": { "code": "동구", "name": "동구" },
      "geometry": {
        "type": "Polygon",
        "coordinates": [[[126.902, 35.123], [126.968, 35.125], [126.983, 35.174], [126.945, 35.212], [126.892, 35.185], [126.902, 35.123]]]
      }
    },
    {
      "type": "Feature",
      "properties": { "code": "서구", "name": "서구" },
      "geometry": {
        "type": "Polygon",
        "coordinates": [[[126.805, 35.122], [126.902, 35.123], [126.892, 35.185], [126.831, 35.205], [126.782, 35.168], [126.805, 35.122]]]
      }
    },
    {
      "type": "Feature",
      "properties": { "code": "남구", "name": "남구" },
      "geometry": {
        "type": "Polygon",
        "coordinates": [[[126.822, 35.062], [126.922, 35.058], [126.968, 35.125], [126.805, 35.122], [126.822, 35.062]]]
      }
    },
    {
      "type": "Feature",
      "properties": { "code": "북구", "name": "북구" },
      "geometry": {
        "type": "Polygon",
        "coordinates": [[[126.831, 35.205], [126.945, 35.212], [126.983, 35.174], [127.018, 35.244], [126.938, 35.282], [126.822, 35.255], [126.831, 35.205]]]
      }
    },
    {
      "type": "Feature",
      "properties": { "code": "광산구", "name": "광산구" },
      "geometry": {
        "type": "Polygon",
        "coordinates": [[[126.635, 35.074], [126.805, 35.122], [126.782, 35.168], [126.831, 35.205], [126.822, 35.255], [126.675, 35.238], [126.584, 35.165], [126.635, 35.074]]]
      }
    }
  ]
}
