{
  "type": "FeatureCollection",
  "features": [
    {
      "type": "Feature",
      "properties": { "code": "jeonnam-1", "name": "목포" },
      "geometry": {
        "type": "Polygon",
        "coordinates": [
          [
            [126.1, 34.72],
            [126.3, 34.72],
            [126.3, 34.92],
            [126.1, 34.92],
            [126.1, 34.72]
          ]
        ]
      }
    },
    {
      "type": "Feature",
      "properties": { "code": "jeonnam-2", "name": "여수" },
      "geometry": {
        "type": "Polygon",
        "coordinates": [
          [
            [127.55, 34.55],
            [127.82, 34.55],
            [127.82, 34.82],
            [127.55, 34.82],
            [127.55, 34.55]
          ]
        ]
      }
    },
    {
      "type": "Feature",
      "properties": { "code": "jeonnam-3", "name": "순천" },
      "geometry": {
        "type": "Polygon",
        "coordinates": [
          [
            [127.32, 34.9],
            [127.58, 34.9],
            [127.58, 35.16],
            [127.32, 35.16],
            [127.32, 34.9]
          ]
        ]
      }
    },
    {
      "type": "Feature",
      "properties": { "code": "jeonnam-4", "name": "나주" },
      "geometry": {
        "type": "Polygon",
        "coordinates": [
          [
            [126.58, 34.92],
            [126.84, 34.92],
            [126.84, 35.18],
            [126.58, 35.18],
            [126.58, 34.92]
          ]
        ]
      }
    },
    {
      "type": "Feature",
      "properties": { "code": "jeonnam-5", "name": "광양" },
      "geometry": {
        "type": "Polygon",
        "coordinates": [
          [
            [127.58, 34.88],
            [127.84, 34.88],
            [127.84, 35.14],
            [127.58, 35.14],
            [127.58, 34.88]
          ]
        ]
      }
    },
    {
      "type": "Feature",
      "properties": { "code": "jeonnam-6", "name": "담양" },
      "geometry": {
        "type": "Polygon",
        "coordinates": [
          [
            [126.88, 35.22],
            [127.1, 35.22],
            [127.1, 35.44],
            [126.88, 35.44],
            [126.88, 35.22]
          ]
        ]
      }
    },
    {
      "type": "Feature",
      "properties": { "code": "jeonnam-7", "name": "곡성" },
      "geometry": {
        "type": "Polygon",
        "coordinates": [
          [
            [127.12, 35.18],
            [127.34, 35.18],
            [127.34, 35.4],
            [127.12, 35.4],
            [127.12, 35.18]
          ]
        ]
      }
    },
    {
      "type": "Feature",
      "properties": { "code": "jeonnam-8", "name": "구례" },
      "geometry": {
        "type": "Polygon",
        "coordinates": [
          [
            [127.38, 35.12],
            [127.6, 35.12],
            [127.6, 35.34],
            [127.38, 35.34],
            [127.38, 35.12]
          ]
        ]
      }
    },
    {
      "type": "Feature",
      "properties": { "code": "jeonnam-9", "name": "고흥" },
      "geometry": {
        "type": "Polygon",
        "coordinates": [
          [
            [127.12, 34.42],
            [127.38, 34.42],
            [127.38, 34.72],
            [127.12, 34.72],
            [127.12, 34.42]
          ]
        ]
      }
    },
    {
      "type": "Feature",
      "properties": { "code": "jeonnam-10", "name": "보성" },
      "geometry": {
        "type": "Polygon",
        "coordinates": [
          [
            [127.0, 34.72],
            [127.26, 34.72],
            [127.26, 34.98],
            [127.0, 34.98],
            [127.0, 34.72]
          ]
        ]
      }
    },
    {
      "type": "Feature",
      "properties": { "code": "jeonnam-11", "name": "화순" },
      "geometry": {
        "type": "Polygon",
        "coordinates": [
          [
            [126.9, 34.98],
            [127.16, 34.98],
            [127.16, 35.24],
            [126.9, 35.24],
            [126.9, 34.98]
          ]
        ]
      }
    },
    {
      "type": "Feature",
      "properties": { "code": "jeonnam-12", "name": "장흥" },
      "geometry": {
        "type": "Polygon",
        "coordinates": [
          [
            [126.82, 34.56],
            [127.08, 34.56],
            [127.08, 34.82],
            [126.82, 34.82],
            [126.82, 34.56]
          ]
        ]
      }
    },
    {
      "type": "Feature",
      "properties": { "code": "jeonnam-13", "name": "강진" },
      "geometry": {
        "type": "Polygon",
        "coordinates": [
          [
            [126.64, 34.48],
            [126.9, 34.48],
            [126.9, 34.74],
            [126.64, 34.74],
            [126.64, 34.48]
          ]
        ]
      }
    },
    {
      "type": "Feature",
      "properties": { "code": "jeonnam-14", "name": "해남" },
      "geometry": {
        "type": "Polygon",
        "coordinates": [
          [
            [126.36, 34.32],
            [126.68, 34.32],
            [126.68, 34.64],
            [126.36, 34.64],
            [126.36, 34.32]
          ]
        ]
      }
    },
    {
      "type": "Feature",
      "properties": { "code": "jeonnam-15", "name": "영암" },
      "geometry": {
        "type": "Polygon",
        "coordinates": [
          [
            [126.44, 34.64],
            [126.7, 34.64],
            [126.7, 34.9],
            [126.44, 34.9],
            [126.44, 34.64]
          ]
        ]
      }
    },
    {
      "type": "Feature",
      "properties": { "code": "jeonnam-16", "name": "무안" },
      "geometry": {
        "type": "Polygon",
        "coordinates": [
          [
            [126.32, 34.84],
            [126.58, 34.84],
            [126.58, 35.1],
            [126.32, 35.1],
            [126.32, 34.84]
          ]
        ]
      }
    },
    {
      "type": "Feature",
      "properties": { "code": "jeonnam-17", "name": "함평" },
      "geometry": {
        "type": "Polygon",
        "coordinates": [
          [
            [126.42, 35.02],
            [126.66, 35.02],
            [126.66, 35.26],
            [126.42, 35.26],
            [126.42, 35.02]
          ]
        ]
      }
    },
    {
      "type": "Feature",
      "properties": { "code": "jeonnam-18", "name": "영광" },
      "geometry": {
        "type": "Polygon",
        "coordinates": [
          [
            [126.28, 35.18],
            [126.54, 35.18],
            [126.54, 35.44],
            [126.28, 35.44],
            [126.28, 35.18]
          ]
        ]
      }
    },
    {
      "type": "Feature",
      "properties": { "code": "jeonnam-19", "name": "장성" },
      "geometry": {
        "type": "Polygon",
        "coordinates": [
          [
            [126.68, 35.22],
            [126.92, 35.22],
            [126.92, 35.46],
            [126.68, 35.46],
            [126.68, 35.22]
          ]
        ]
      }
    },
    {
      "type": "Feature",
      "properties": { "code": "jeonnam-20", "name": "완도" },
      "geometry": {
        "type": "Polygon",
        "coordinates": [
          [
            [126.58, 34.12],
            [126.86, 34.12],
            [126.86, 34.4],
            [126.58, 34.4],
            [126.58, 34.12]
          ]
        ]
      }
    },
    {
      "type": "Feature",
      "properties": { "code": "jeonnam-21", "name": "진도" },
      "geometry": {
        "type": "Polygon",
        "coordinates": [
          [
            [126.12, 34.32],
            [126.38, 34.32],
            [126.38, 34.58],
            [126.12, 34.58],
            [126.12, 34.32]
          ]
        ]
      }
    },
    {
      "type": "Feature",
      "properties": { "code": "jeonnam-22", "name": "신안" },
      "geometry": {
        "type": "Polygon",
        "coordinates": [
          [
            [125.9, 34.64],
            [126.2, 34.64],
            [126.2, 34.98],
            [125.9, 34.98],
            [125.9, 34.64]
          ]
        ]
      }
    }
  ]
}
